STARLINK-4726           
1 53802U 22111AF  26068.85773228  .00000641  00000+0  58339-4 0  9991
2 53802  53.2167 263.2327 0001249  88.4404 271.6731 15.08840500193846
YAM-8                   
1 63254U 25052AW  26068.73092778  .00007810  00000+0  47267-3 0  9993
2 63254  97.7023 329.5345 0002369 152.6796 207.4558 15.10898938 54245
